SKYSAT-A                
1 39418U 13066C   26094.10717801  .00006185  00000+0  35656-3 0  9994
2 39418  97.3894 145.8568 0020977 206.6429 153.3726 15.12548952677287
SKYSAT-B                
1 40072U 14037D   26093.81575873  .00003387  00000+0  37712-3 0  9995
2 40072  98.3771  48.5850 0006192 147.3932 212.7666 14.87827857634906
SKYSAT-C1               
1 41601U 16040C   26094.06318844  .00016878  00000+0  49763-3 0  9999
2 41601  96.9647 129.8355 0000731 338.1650  21.9563 15.35071566546498
SKYSAT-C4               
1 41771U 16058B   26094.61319393  .00022843  00000+0  46338-3 0  9991
2 41771  96.9246 119.5597 0002985 125.1553 234.9978 15.46365601534091
SKYSAT-C5               
1 41772U 16058C   26094.06783558  .00015811  00000+0  47907-3 0  9999
2 41772  97.0556 138.0264 0002129 174.0544 186.0726 15.34222719532385
SKYSAT-C2               
1 41773U 16058D   26094.04885802  .00021498  00000+0  53234-3 0  9991
2 41773  97.0236 118.9983 0002176 358.9881   1.1362 15.40431751533632
SKYSAT-C3               
1 41774U 16058E   26094.65818969  .00026698  00000+0  48397-3 0  9990
2 41774  96.9122 128.4431 0002447 110.4361 249.7155 15.49588124534710
SKYSAT-C11              
1 42987U 17068A   26094.29294748  .00045952  00000+0  70571-3 0  9995
2 42987  97.4253 240.1675 0000539 161.9909 198.1364 15.54142592471753
SKYSAT-C10              
1 42988U 17068B   26093.92777451  .00019021  00000+0  59243-3 0  9993
2 42988  97.4388 230.1765 0001027 109.3391 250.7962 15.33318506470975
SKYSAT-C9               
1 42989U 17068C   26093.93578308  .00025496  00000+0  64426-3 0  9997
2 42989  97.4313 230.4389 0009405  51.3646 308.8440 15.39745751471324
SKYSAT-C8               
1 42990U 17068D   26093.94248882  .00020789  00000+0  60444-3 0  9997
2 42990  97.4405 229.7181 0001096  94.1581 265.9787 15.35479517470911
SKYSAT-C7               
1 42991U 17068E   26093.93336283  .00020999  00000+0  61114-3 0  9998
2 42991  97.4417 230.6932 0006284  25.3448 334.8103 15.35429484470974
SKYSAT-C6               
1 42992U 17068F   26094.29317000  .00018066  00000+0  56580-3 0  9998
2 42992  97.4453 231.2652 0003544  64.8325 295.3284 15.33149378470991
SKYSAT-C12              
1 43797U 18099AR  26094.06525126  .00030244  00000+0  60726-3 0  9991
2 43797  96.9335 120.3831 0005931  76.8264 283.3648 15.46598853410391
SKYSAT-C13              
1 43802U 18099AW  26094.64336516  .00139559  00000+0  66494-3 0  9992
2 43802  96.9316 142.4233 0005411 134.3910 225.7803 15.82461801411261
FLOCK 4Q-16             
1 58271U 23174R   26094.78427288  .00030175  00000+0  61332-3 0  9990
2 58271  97.3838 181.3714 0007164  77.5639 282.6411 15.46239075134221
