[{"OBJECT_NAME":"SKYSAT-A","OBJECT_ID":"2013-066C","EPOCH":"2026-04-04T02:34:20.180064","MEAN_MOTION":15.12548952,"ECCENTRICITY":0.00209775,"INCLINATION":97.3894,"RA_OF_ASC_NODE":145.8568,"ARG_OF_PERICENTER":206.6429,"MEAN_ANOMALY":153.3726,"EPHEMERIS_TYPE":0,"CLASSIFICATION_TYPE":"U","NORAD_CAT_ID":39418,"ELEMENT_SET_NO":999,"REV_AT_EPOCH":67728,"BSTAR":0.00035656116,"MEAN_MOTION_DOT":6.185e-5,"MEAN_MOTION_DDOT":0},{"OBJECT_NAME":"SKYSAT-B","OBJECT_ID":"2014-037D","EPOCH":"2026-04-03T19:34:41.554272","MEAN_MOTION":14.87827857,"ECCENTRICITY":0.0006192,"INCLINATION":98.3771,"RA_OF_ASC_NODE":48.585,"ARG_OF_PERICENTER":147.3932,"MEAN_ANOMALY":212.7666,"EPHEMERIS_TYPE":0,"CLASSIFICATION_TYPE":"U","NORAD_CAT_ID":40072,"ELEMENT_SET_NO":999,"REV_AT_EPOCH":63490,"BSTAR":0.00037711952,"MEAN_MOTION_DOT":3.387e-5,"MEAN_MOTION_DDOT":0},{"OBJECT_NAME":"SKYSAT-C1","OBJECT_ID":"2016-040C","EPOCH":"2026-04-04T01:30:59.481216","MEAN_MOTION":15.35071566,"ECCENTRICITY":7.318e-5,"INCLINATION":96.9647,"RA_OF_ASC_NODE":129.8355,"ARG_OF_PERICENTER":338.165,"MEAN_ANOMALY":21.9563,"EPHEMERIS_TYPE":0,"CLASSIFICATION_TYPE":"U","NORAD_CAT_ID":41601,"ELEMENT_SET_NO":999,"REV_AT_EPOCH":54649,"BSTAR":0.000497626,"MEAN_MOTION_DOT":0.00016878,"MEAN_MOTION_DDOT":0},{"OBJECT_NAME":"SKYSAT-C4","OBJECT_ID":"2016-058B","EPOCH":"2026-04-04T14:42:59.955552","MEAN_MOTION":15.46365601,"ECCENTRICITY":0.0002985,"INCLINATION":96.9246,"RA_OF_ASC_NODE":119.5597,"ARG_OF_PERICENTER":125.1553,"MEAN_ANOMALY":234.9978,"EPHEMERIS_TYPE":0,"CLASSIFICATION_TYPE":"U","NORAD_CAT_ID":41771,"ELEMENT_SET_NO":999,"REV_AT_EPOCH":53409,"BSTAR":0.00046338,"MEAN_MOTION_DOT":0.00022843,"MEAN_MOTION_DDOT":0},{"OBJECT_NAME":"SKYSAT-C5","OBJECT_ID":"2016-058C","EPOCH":"2026-04-04T01:37:40.994112","MEAN_MOTION":15.34222719,"ECCENTRICITY":0.00021293,"INCLINATION":97.0556,"RA_OF_ASC_NODE":138.0264,"ARG_OF_PERICENTER":174.0544,"MEAN_ANOMALY":186.0726,"EPHEMERIS_TYPE":0,"CLASSIFICATION_TYPE":"U","NORAD_CAT_ID":41772,"ELEMENT_SET_NO":999,"REV_AT_EPOCH":53238,"BSTAR":0.00047906817,"MEAN_MOTION_DOT":0.00015811,"MEAN_MOTION_DDOT":0},{"OBJECT_NAME":"SKYSAT-C2","OBJECT_ID":"2016-058D","EPOCH":"2026-04-04T01:10:21.332928","MEAN_MOTION":15.40431751,"ECCENTRICITY":0.00021769,"INCLINATION":97.0236,"RA_OF_ASC_NODE":118.9983,"ARG_OF_PERICENTER":358.9881,"MEAN_ANOMALY":1.1362,"EPHEMERIS_TYPE":0,"CLASSIFICATION_TYPE":"U","NORAD_CAT_ID":41773,"ELEMENT_SET_NO":999,"REV_AT_EPOCH":53363,"BSTAR":0.00053234279,"MEAN_MOTION_DOT":0.00021498,"MEAN_MOTION_DDOT":0},{"OBJECT_NAME":"SKYSAT-C3","OBJECT_ID":"2016-058E","EPOCH":"2026-04-04T15:47:47.589216","MEAN_MOTION":15.49588124,"ECCENTRICITY":0.0002447,"INCLINATION":96.9122,"RA_OF_ASC_NODE":128.4431,"ARG_OF_PERICENTER":110.4361,"MEAN_ANOMALY":249.7155,"EPHEMERIS_TYPE":0,"CLASSIFICATION_TYPE":"U","NORAD_CAT_ID":41774,"ELEMENT_SET_NO":999,"REV_AT_EPOCH":53471,"BSTAR":0.00048397,"MEAN_MOTION_DOT":0.00026698,"MEAN_MOTION_DDOT":0},{"OBJECT_NAME":"SKYSAT-C11","OBJECT_ID":"2017-068A","EPOCH":"2026-04-04T07:01:50.662272","MEAN_MOTION":15.54142592,"ECCENTRICITY":5.393e-5,"INCLINATION":97.4253,"RA_OF_ASC_NODE":240.1675,"ARG_OF_PERICENTER":161.9909,"MEAN_ANOMALY":198.1364,"EPHEMERIS_TYPE":0,"CLASSIFICATION_TYPE":"U","NORAD_CAT_ID":42987,"ELEMENT_SET_NO":999,"REV_AT_EPOCH":47175,"BSTAR":0.00070571131,"MEAN_MOTION_DOT":0.00045952,"MEAN_MOTION_DDOT":0},{"OBJECT_NAME":"SKYSAT-C10","OBJECT_ID":"2017-068B","EPOCH":"2026-04-03T22:15:59.717664","MEAN_MOTION":15.33318506,"ECCENTRICITY":0.00010271,"INCLINATION":97.4388,"RA_OF_ASC_NODE":230.1765,"ARG_OF_PERICENTER":109.3391,"MEAN_ANOMALY":250.7962,"EPHEMERIS_TYPE":0,"CLASSIFICATION_TYPE":"U","NORAD_CAT_ID":42988,"ELEMENT_SET_NO":999,"REV_AT_EPOCH":47097,"BSTAR":0.0005924278,"MEAN_MOTION_DOT":0.00019021,"MEAN_MOTION_DDOT":0},{"OBJECT_NAME":"SKYSAT-C9","OBJECT_ID":"2017-068C","EPOCH":"2026-04-03T22:27:31.658112","MEAN_MOTION":15.39745751,"ECCENTRICITY":0.0009405,"INCLINATION":97.4313,"RA_OF_ASC_NODE":230.4389,"ARG_OF_PERICENTER":51.3646,"MEAN_ANOMALY":308.844,"EPHEMERIS_TYPE":0,"CLASSIFICATION_TYPE":"U","NORAD_CAT_ID":42989,"ELEMENT_SET_NO":999,"REV_AT_EPOCH":47132,"BSTAR":0.00064425784,"MEAN_MOTION_DOT":0.00025496,"MEAN_MOTION_DDOT":0},{"OBJECT_NAME":"SKYSAT-C8","OBJECT_ID":"2017-068D","EPOCH":"2026-04-03T22:37:11.034048","MEAN_MOTION":15.35479517,"ECCENTRICITY":0.00010965,"INCLINATION":97.4405,"RA_OF_ASC_NODE":229.7181,"ARG_OF_PERICENTER":94.1581,"MEAN_ANOMALY":265.9787,"EPHEMERIS_TYPE":0,"CLASSIFICATION_TYPE":"U","NORAD_CAT_ID":42990,"ELEMENT_SET_NO":999,"REV_AT_EPOCH":47091,"BSTAR":0.00060443738,"MEAN_MOTION_DOT":0.00020789,"MEAN_MOTION_DDOT":0},{"OBJECT_NAME":"SKYSAT-C7","OBJECT_ID":"2017-068E","EPOCH":"2026-04-03T22:24:02.548512","MEAN_MOTION":15.35429484,"ECCENTRICITY":0.00062845,"INCLINATION":97.4417,"RA_OF_ASC_NODE":230.6932,"ARG_OF_PERICENTER":25.3448,"MEAN_ANOMALY":334.8103,"EPHEMERIS_TYPE":0,"CLASSIFICATION_TYPE":"U","NORAD_CAT_ID":42991,"ELEMENT_SET_NO":999,"REV_AT_EPOCH":47097,"BSTAR":0.00061113589,"MEAN_MOTION_DOT":0.00020999,"MEAN_MOTION_DDOT":0},{"OBJECT_NAME":"SKYSAT-C6","OBJECT_ID":"2017-068F","EPOCH":"2026-04-04T07:02:09.888000","MEAN_MOTION":15.33149378,"ECCENTRICITY":0.00035446,"INCLINATION":97.4453,"RA_OF_ASC_NODE":231.2652,"ARG_OF_PERICENTER":64.8325,"MEAN_ANOMALY":295.3284,"EPHEMERIS_TYPE":0,"CLASSIFICATION_TYPE":"U","NORAD_CAT_ID":42992,"ELEMENT_SET_NO":999,"REV_AT_EPOCH":47099,"BSTAR":0.00056579586,"MEAN_MOTION_DOT":0.00018066,"MEAN_MOTION_DDOT":0},{"OBJECT_NAME":"SKYSAT-C12","OBJECT_ID":"2018-099AR","EPOCH":"2026-04-04T01:33:57.708864","MEAN_MOTION":15.46598853,"ECCENTRICITY":0.00059313,"INCLINATION":96.9335,"RA_OF_ASC_NODE":120.3831,"ARG_OF_PERICENTER":76.8264,"MEAN_ANOMALY":283.3648,"EPHEMERIS_TYPE":0,"CLASSIFICATION_TYPE":"U","NORAD_CAT_ID":43797,"ELEMENT_SET_NO":999,"REV_AT_EPOCH":41039,"BSTAR":0.00060725689,"MEAN_MOTION_DOT":0.00030244,"MEAN_MOTION_DDOT":0},{"OBJECT_NAME":"SKYSAT-C13","OBJECT_ID":"2018-099AW","EPOCH":"2026-04-04T15:26:26.749824","MEAN_MOTION":15.82461801,"ECCENTRICITY":0.0005411,"INCLINATION":96.9316,"RA_OF_ASC_NODE":142.4233,"ARG_OF_PERICENTER":134.391,"MEAN_ANOMALY":225.7803,"EPHEMERIS_TYPE":0,"CLASSIFICATION_TYPE":"U","NORAD_CAT_ID":43802,"ELEMENT_SET_NO":999,"REV_AT_EPOCH":41126,"BSTAR":0.00066494,"MEAN_MOTION_DOT":0.00139559,"MEAN_MOTION_DDOT":0},{"OBJECT_NAME":"FLOCK 4Q-16","OBJECT_ID":"2023-174R","EPOCH":"2026-04-04T18:49:21.176832","MEAN_MOTION":15.46239075,"ECCENTRICITY":0.0007164,"INCLINATION":97.3838,"RA_OF_ASC_NODE":181.3714,"ARG_OF_PERICENTER":77.5639,"MEAN_ANOMALY":282.6411,"EPHEMERIS_TYPE":0,"CLASSIFICATION_TYPE":"U","NORAD_CAT_ID":58271,"ELEMENT_SET_NO":999,"REV_AT_EPOCH":13422,"BSTAR":0.00061332,"MEAN_MOTION_DOT":0.00030175,"MEAN_MOTION_DDOT":0}]
